[{"OBJECT_NAME":"LEMUR-2-ANDIS","OBJECT_ID":"2017-042P","EPOCH":"2026-03-09T13:25:33.116448","MEAN_MOTION":15.30557934,"ECCENTRICITY":0.0009101,"INCLINATION":97.3659,"RA_OF_ASC_NODE":249.795,"ARG_OF_PERICENTER":4.3248,"MEAN_ANOMALY":355.807,"EPHEMERIS_TYPE":0,"CLASSIFICATION_TYPE":"U","NORAD_CAT_ID":42838,"ELEMENT_SET_NO":999,"REV_AT_EPOCH":47319,"BSTAR":0.00079875,"MEAN_MOTION_DOT":0.00023598,"MEAN_MOTION_DDOT":0},{"OBJECT_NAME":"STARLINK-36141","OBJECT_ID":"2025-294AD","EPOCH":"2026-03-09T23:11:36.115872","MEAN_MOTION":15.27597691,"ECCENTRICITY":0.00014316,"INCLINATION":43.0074,"RA_OF_ASC_NODE":36.3312,"ARG_OF_PERICENTER":240.6042,"MEAN_ANOMALY":119.4667,"EPHEMERIS_TYPE":0,"CLASSIFICATION_TYPE":"U","NORAD_CAT_ID":67057,"ELEMENT_SET_NO":999,"REV_AT_EPOCH":1484,"BSTAR":0.0010377835,"MEAN_MOTION_DOT":0.00028421,"MEAN_MOTION_DDOT":0}]
